start=new Date('2023-04-12T00:00:00.000Z').valueOf();
sats=[{"MEAN_ELEMENT_THEORY":"SGP4","EPHEMERIS_TYPE":"0","NORAD_CAT_ID":"55580","REV_AT_EPOCH":"130","GP_ID":"229949115","ARG_OF_PERICENTER":"271.2545","OBJECT_ID":"2023-020M","BSTAR":"-0.01288400000000","CENTER_NAME":"EARTH","MEAN_MOTION_DOT":"-0.00923150","SEMIMAJOR_AXIS":"6769.668","MEAN_MOTION_DDOT":"0.0000000000000","APOAPSIS":"392.454","OBJECT_TYPE":"PAYLOAD","PERIOD":"92.387","LAUNCH_DATE":"2023-02-12","DECAY_DATE":null,"ECCENTRICITY":"0.00013600","SITE":"AFETR","MEAN_MOTION":"15.58661192","FILE":"3885919","TLE_LINE1":"1 55580U 23020M   23101.91667824 -.00923150  00000-0 -12884-1 0  9996","CLASSIFICATION_TYPE":"U","MEAN_ANOMALY":"193.5369","TIME_SYSTEM":"UTC","RA_OF_ASC_NODE":"2.3809","EPOCH":"2023-04-11T22:00:00.999936","RCS_SIZE":"LARGE","INCLINATION":"43.0007","ELEMENT_SET_NO":"999","PERIAPSIS":"390.612","COUNTRY_CODE":"US","TLE_LINE2":"2 55580  43.0007   2.3809 0001360 271.2545 193.5369 15.58661192  1301","OBJECT_NAME":"STARLINK-5757","REF_FRAME":"TEME"},{"NORAD_CAT_ID":"55581","MEAN_ELEMENT_THEORY":"SGP4","EPHEMERIS_TYPE":"0","REV_AT_EPOCH":"902","ARG_OF_PERICENTER":"249.4751","OBJECT_ID":"2023-020N","GP_ID":"229949349","CENTER_NAME":"EARTH","BSTAR":"0.00011609000000","MEAN_MOTION_DOT":"0.00001365","SEMIMAJOR_AXIS":"6937.215","MEAN_MOTION_DDOT":"0.0000000000000","APOAPSIS":"559.782","OBJECT_TYPE":"PAYLOAD","PERIOD":"95.838","LAUNCH_DATE":"2023-02-12","DECAY_DATE":null,"ECCENTRICITY":"0.00010120","SITE":"AFETR","CLASSIFICATION_TYPE":"U","FILE":"3885919","MEAN_MOTION":"15.02536660","TLE_LINE1":"1 55581U 23020N   23101.74584994  .00001365  00000-0  11609-3 0  9993","RA_OF_ASC_NODE":"20.4879","MEAN_ANOMALY":"110.5983","TIME_SYSTEM":"UTC","EPOCH":"2023-04-11T17:54:01.434816","INCLINATION":"43.0000","ELEMENT_SET_NO":"999","RCS_SIZE":"LARGE","COUNTRY_CODE":"US","TLE_LINE2":"2 55581  43.0000  20.4879 0001012 249.4751 110.5983 15.02536660  9021","PERIAPSIS":"558.377","OBJECT_NAME":"STARLINK-5753","REF_FRAME":"TEME"},{"PERIAPSIS":"479.237","COUNTRY_CODE":"US","TLE_LINE2":"2 55582  43.0007   7.6533 0001177 271.4456 208.5215 15.28584693  1308","REF_FRAME":"TEME","OBJECT_NAME":"STARLINK-5741","EPOCH":"2023-04-11T22:00:00.999936","MEAN_ANOMALY":"208.5215","TIME_SYSTEM":"UTC","RA_OF_ASC_NODE":"7.6533","RCS_SIZE":"LARGE","ELEMENT_SET_NO":"999","INCLINATION":"43.0007","SITE":"AFETR","TLE_LINE1":"1 55582U 23020P   23101.91667824 -.00938597  00000-0 -35710-1 0  9992","MEAN_MOTION":"15.28584693","FILE":"3885919","CLASSIFICATION_TYPE":"U","PERIOD":"94.205","ECCENTRICITY":"0.00011770","LAUNCH_DATE":"2023-02-12","DECAY_DATE":null,"MEAN_MOTION_DDOT":"0.0000000000000","OBJECT_TYPE":"PAYLOAD","APOAPSIS":"480.852","MEAN_MOTION_DOT":"-0.00938597","SEMIMAJOR_AXIS":"6858.179","GP_ID":"229948114","OBJECT_ID":"2023-020P","ARG_OF_PERICENTER":"271.4456","BSTAR":"-0.03571000000000","CENTER_NAME":"EARTH","MEAN_ELEMENT_THEORY":"SGP4","EPHEMERIS_TYPE":"0","NORAD_CAT_ID":"55582","REV_AT_EPOCH":"130"},{"PERIAPSIS":"558.187","COUNTRY_CODE":"US","TLE_LINE2":"2 55583  43.0010  20.0873 0001272 269.2013  90.8684 15.02540082  9035","OBJECT_NAME":"STARLINK-5742","REF_FRAME":"TEME","RA_OF_ASC_NODE":"20.0873","TIME_SYSTEM":"UTC","MEAN_ANOMALY":"90.8684","EPOCH":"2023-04-11T19:21:45.666720","RCS_SIZE":"LARGE","INCLINATION":"43.0010","ELEMENT_SET_NO":"999","SITE":"AFETR","FILE":"3885919","MEAN_MOTION":"15.02540082","TLE_LINE1":"1 55583U 23020Q   23101.80677855  .00004707  00000-0  36325-3 0  9996","CLASSIFICATION_TYPE":"U","PERIOD":"95.838","LAUNCH_DATE":"2023-02-12","DECAY_DATE":null,"ECCENTRICITY":"0.00012720","MEAN_MOTION_DDOT":"0.0000000000000","APOAPSIS":"559.951","OBJECT_TYPE":"PAYLOAD","MEAN_MOTION_DOT":"0.00004707","SEMIMAJOR_AXIS":"6937.204","GP_ID":"229948364","ARG_OF_PERICENTER":"269.2013","OBJECT_ID":"2023-020Q","BSTAR":"0.00036325000000","CENTER_NAME":"EARTH","MEAN_ELEMENT_THEORY":"SGP4","EPHEMERIS_TYPE":"0","NORAD_CAT_ID":"55583","REV_AT_EPOCH":"903"},{"APOAPSIS":"560.001","OBJECT_TYPE":"PAYLOAD","MEAN_MOTION_DDOT":"0.0000000000000","SEMIMAJOR_AXIS":"6937.163","MEAN_MOTION_DOT":"0.00002897","CENTER_NAME":"EARTH","BSTAR":"0.00022933000000","OBJECT_ID":"2023-020R","ARG_OF_PERICENTER":"270.8254","GP_ID":"229919007","REV_AT_EPOCH":"895","NORAD_CAT_ID":"55584","EPHEMERIS_TYPE":"0","MEAN_ELEMENT_THEORY":"SGP4","OBJECT_NAME":"STARLINK-5736","REF_FRAME":"TEME","TLE_LINE2":"2 55584  43.0029  22.9596 0001402 270.8254  89.2428 15.02553384  8956","COUNTRY_CODE":"US","PERIAPSIS":"558.055","INCLINATION":"43.0029","ELEMENT_SET_NO":"999","RCS_SIZE":"LARGE","TIME_SYSTEM":"UTC","MEAN_ANOMALY":"89.2428","RA_OF_ASC_NODE":"22.9596","EPOCH":"2023-04-11T06:32:43.116000","CLASSIFICATION_TYPE":"U","FILE":"3885783","MEAN_MOTION":"15.02553384","TLE_LINE1":"1 55584U 23020R   23101.27272125  .00002897  00000-0  22933-3 0  9997","SITE":"AFETR","DECAY_DATE":null,"LAUNCH_DATE":"2023-02-12","ECCENTRICITY":"0.00014020","PERIOD":"95.837"},{"MEAN_MOTION_DOT":"-0.00937078","SEMIMAJOR_AXIS":"6869.681","MEAN_MOTION_DDOT":"0.0000000000000","APOAPSIS":"492.366","OBJECT_TYPE":"PAYLOAD","NORAD_CAT_ID":"55585","EPHEMERIS_TYPE":"0","MEAN_ELEMENT_THEORY":"SGP4","REV_AT_EPOCH":"130","OBJECT_ID":"2023-020S","ARG_OF_PERICENTER":"264.4582","GP_ID":"229948850","CENTER_NAME":"EARTH","BSTAR":"-0.04007700000000","MEAN_ANOMALY":"54.8544","TIME_SYSTEM":"UTC","RA_OF_ASC_NODE":"8.0365","EPOCH":"2023-04-11T22:00:00.999936","INCLINATION":"43.0023","ELEMENT_SET_NO":"999","RCS_SIZE":"LARGE","TLE_LINE2":"2 55585  43.0023   8.0365 0001194 264.4582  54.8544 15.24747361  1304","COUNTRY_CODE":"US","PERIAPSIS":"490.726","OBJECT_NAME":"STARLINK-5769","REF_FRAME":"TEME","PERIOD":"94.442","DECAY_DATE":null,"LAUNCH_DATE":"2023-02-12","ECCENTRICITY":"0.00011940","SITE":"AFETR","CLASSIFICATION_TYPE":"U","MEAN_MOTION":"15.24747361","FILE":"3885919","TLE_LINE1":"1 55585U 23020S   23101.91667824 -.00937078  00000-0 -40077-1 0  9990"},{"INCLINATION":"43.0017","ELEMENT_SET_NO":"999","RCS_SIZE":"LARGE","RA_OF_ASC_NODE":"22.8956","TIME_SYSTEM":"UTC","MEAN_ANOMALY":"96.1536","EPOCH":"2023-04-11T06:19:56.512128","OBJECT_NAME":"STARLINK-5767","REF_FRAME":"TEME","TLE_LINE2":"2 55586  43.0017  22.8956 0001327 263.9155  96.1536 15.02555086  8951","COUNTRY_CODE":"US","PERIAPSIS":"558.102","LAUNCH_DATE":"2023-02-12","DECAY_DATE":null,"ECCENTRICITY":"0.00013270","PERIOD":"95.837","CLASSIFICATION_TYPE":"U","MEAN_MOTION":"15.02555086","FILE":"3885783","TLE_LINE1":"1 55586U 23020T   23101.26384852  .00006782  00000-0  51636-3 0  9998","SITE":"AFETR","SEMIMAJOR_AXIS":"6937.158","MEAN_MOTION_DOT":"0.00006782","APOAPSIS":"559.943","OBJECT_TYPE":"PAYLOAD","MEAN_MOTION_DDOT":"0.0000000000000","REV_AT_EPOCH":"895","NORAD_CAT_ID":"55586","MEAN_ELEMENT_THEORY":"SGP4","EPHEMERIS_TYPE":"0","CENTER_NAME":"EARTH","BSTAR":"0.00051636000000","ARG_OF_PERICENTER":"263.9155","OBJECT_ID":"2023-020T","GP_ID":"229918006"},{"PERIAPSIS":"560.634","COUNTRY_CODE":"US","TLE_LINE2":"2 55587  43.0015  16.9675 0001407 271.0262  89.0418 15.01714924  9071","OBJECT_NAME":"STARLINK-5727","REF_FRAME":"TEME","TIME_SYSTEM":"UTC","RA_OF_ASC_NODE":"16.9675","MEAN_ANOMALY":"89.0418","EPOCH":"2023-04-11T20:23:25.280160","RCS_SIZE":"LARGE","INCLINATION":"43.0015","ELEMENT_SET_NO":"999","SITE":"AFETR","FILE":"3885919","MEAN_MOTION":"15.01714924","TLE_LINE1":"1 55587U 23020U   23101.84959815 -.00001345  00000-0 -86467-4 0  9993","CLASSIFICATION_TYPE":"U","PERIOD":"95.890","DECAY_DATE":null,"LAUNCH_DATE":"2023-02-12","ECCENTRICITY":"0.00014070","MEAN_MOTION_DDOT":"0.0000000000000","APOAPSIS":"562.586","OBJECT_TYPE":"PAYLOAD","MEAN_MOTION_DOT":"-0.00001345","SEMIMAJOR_AXIS":"6939.745","GP_ID":"229947865","ARG_OF_PERICENTER":"271.0262","OBJECT_ID":"2023-020U","BSTAR":"-0.00008646700000","CENTER_NAME":"EARTH","MEAN_ELEMENT_THEORY":"SGP4","EPHEMERIS_TYPE":"0","NORAD_CAT_ID":"55587","REV_AT_EPOCH":"907"},{"SEMIMAJOR_AXIS":"6937.221","MEAN_MOTION_DOT":"0.00000542","OBJECT_TYPE":"PAYLOAD","APOAPSIS":"560.277","MEAN_MOTION_DDOT":"0.0000000000000","REV_AT_EPOCH":"903","NORAD_CAT_ID":"55588","EPHEMERIS_TYPE":"0","MEAN_ELEMENT_THEORY":"SGP4","CENTER_NAME":"EARTH","BSTAR":"0.00005523600000","ARG_OF_PERICENTER":"270.5029","OBJECT_ID":"2023-020V","GP_ID":"229949116","ELEMENT_SET_NO":"999","INCLINATION":"43.0018","RCS_SIZE":"LARGE","EPOCH":"2023-04-11T18:54:35.208000","TIME_SYSTEM":"UTC","MEAN_ANOMALY":"89.5616","RA_OF_ASC_NODE":"19.9490","REF_FRAME":"TEME","OBJECT_NAME":"STARLINK-5728","TLE_LINE2":"2 55588  43.0018  19.9490 0001716 270.5029  89.5616 15.02534398  9038","COUNTRY_CODE":"US","PERIAPSIS":"557.896","ECCENTRICITY":"0.00017160","DECAY_DATE":null,"LAUNCH_DATE":"2023-02-12","PERIOD":"95.838","CLASSIFICATION_TYPE":"U","TLE_LINE1":"1 55588U 23020V   23101.78790750  .00000542  00000-0  55236-4 0  9994","MEAN_MOTION":"15.02534398","FILE":"3885919","SITE":"AFETR"},{"TLE_LINE2":"2 55589  42.9996  19.9891 0000923 277.3396  82.7341 15.02539023  9038","COUNTRY_CODE":"US","PERIAPSIS":"558.432","REF_FRAME":"TEME","OBJECT_NAME":"STARLINK-5697","EPOCH":"2023-04-11T19:02:34.879200","TIME_SYSTEM":"UTC","RA_OF_ASC_NODE":"19.9891","MEAN_ANOMALY":"82.7341","ELEMENT_SET_NO":"999","INCLINATION":"42.9996","RCS_SIZE":"LARGE","SITE":"AFETR","CLASSIFICATION_TYPE":"U","TLE_LINE1":"1 55589U 23020W   23101.79345925  .00009300  00000-0  70254-3 0  9993","MEAN_MOTION":"15.02539023","FILE":"3885919","PERIOD":"95.838","ECCENTRICITY":"0.00009230","LAUNCH_DATE":"2023-02-12","DECAY_DATE":null,"MEAN_MOTION_DDOT":"0.0000000000000","OBJECT_TYPE":"PAYLOAD","APOAPSIS":"559.713","MEAN_MOTION_DOT":"0.00009300","SEMIMAJOR_AXIS":"6937.207","OBJECT_ID":"2023-020W","ARG_OF_PERICENTER":"277.3396","GP_ID":"229949350","CENTER_NAME":"EARTH","BSTAR":"0.00070254000000","NORAD_CAT_ID":"55589","MEAN_ELEMENT_THEORY":"SGP4","EPHEMERIS_TYPE":"0","REV_AT_EPOCH":"903"}];
